OBJECT_NAME,OBJECT_ID,EPOCH,MEAN_MOTION,ECCENTRICITY,INCLINATION,RA_OF_ASC_NODE,ARG_OF_PERICENTER,MEAN_ANOMALY,EPHEMERIS_TYPE,CLASSIFICATION_TYPE,NORAD_CAT_ID,ELEMENT_SET_NO,REV_AT_EPOCH,BSTAR,MEAN_MOTION_DOT,MEAN_MOTION_DDOT
JCSAT-3A,2006-033A,2026-07-10T07:22:13.294848,1.00270363,.00024909,0.0229,306.9783,179.2428,40.5650,0,U,29272,999,4797,0,-.334E-5,0
KOREASAT 5 (MUGUNGWHA 5),2006-034A,2026-07-10T07:17:58.701696,1.00272729,.00016805,1.8417,82.7099,77.2073,350.8632,0,U,29349,999,4155,0,-.349E-5,0
DIRECTV 9S,2006-043A,2026-07-10T05:21:55.877760,1.00270972,.00050383,2.4771,80.6254,31.4976,155.3089,0,U,29494,999,5161,0,-.105E-5,0
OPTUS D1,2006-043B,2026-07-10T05:46:20.667072,1.00270793,.00033567,3.0911,79.3729,28.5331,58.8158,0,U,29495,999,7235,0,-.176E-5,0
BADR-4,2006-051A,2026-07-10T06:55:30.855648,1.00273997,.00048928,2.0614,80.8704,30.0100,315.6654,0,U,29526,999,5149,0,.164E-5,0
WILDBLUE-1,2006-054A,2026-07-10T07:23:37.686912,1.00273856,.0001332,2.8594,80.1958,22.0449,185.6957,0,U,29643,999,5402,0,-.42E-6,0
SKYNET 5A,2007-007B,2026-07-10T02:20:52.129248,1.00271261,.0003687,5.3569,73.4613,38.3471,306.6519,0,U,30794,999,7092,0,-.265E-5,0
ANIK F3,2007-009A,2026-07-10T08:11:38.061600,1.00271826,.0002511,1.2544,83.5764,34.1795,174.7031,0,U,31102,999,4679,0,.8E-7,0
ASTRA 1L,2007-016A,2026-07-10T06:38:39.971328,1.00270808,.00052798,1.3784,81.3884,31.5283,250.4424,0,U,31306,999,4521,0,-.175E-5,0
GALAXY 17 (G-17),2007-016B,2026-07-10T06:21:26.621280,1.00271194,.00035925,3.0270,79.6093,30.7858,188.1340,0,U,31307,999,7003,0,-.198E-5,0
INTELSAT 11 (IS-11),2007-044B,2026-07-10T05:10:01.648704,0.99050467,.00039791,3.6222,78.3901,99.0248,212.7056,0,U,32253,999,6867,0,-.28E-6,0
WGS F1 (USA 195),2007-046A,2026-07-09T11:44:21.138720,1.00266036,.00003193,0.0151,75.3309,162.2257,183.4713,0,U,32258,999,5255,0,-.254E-5,0
SKYNET 5B,2007-056B,2026-07-09T22:19:36.584256,1.00272198,.00037426,5.3082,73.2334,36.2150,178.3837,0,U,32294,999,6842,0,.147E-5,0
ASTRA 4A,2007-057A,2026-07-10T07:33:38.628288,1.00269829,.00022567,0.0365,293.6716,180.8697,291.9102,0,U,32299,999,5187,0,.43E-6,0
HORIZONS-2,2007-063B,2026-07-10T07:23:38.817888,1.00270902,.00036093,2.6587,80.3423,16.7979,228.2122,0,U,32388,999,6804,0,-.245E-5,0
THURAYA-3,2008-001A,2026-07-10T03:52:21.740736,1.00270751,.00021703,6.0265,35.8116,74.5748,299.4893,0,U,32404,999,6772,0,.15E-6,0
THOR 5,2008-006A,2026-07-10T07:33:38.628288,1.00270431,.00023192,0.0526,243.8155,233.9505,283.1311,0,U,32487,999,6754,0,.1E-7,0
AMC-14,2008-011A,2026-07-10T00:32:21.566112,1.00420339,.00399082,24.0366,20.2441,8.1782,343.6292,0,U,32708,999,6839,0,-.155E-5,0
DIRECTV 11,2008-013A,2026-07-10T01:09:25.839936,1.00273035,.00002601,0.0376,213.5585,20.0966,332.4949,0,U,32729,999,4582,0,-.114E-5,0
ICO G1,2008-016A,2026-07-10T05:17:26.601792,1.00273065,.00022538,5.5270,36.0560,63.3170,175.2760,0,U,32763,999,6677,0,-.166E-5,0
VINASAT-1,2008-018A,2026-07-09T21:07:25.089600,1.00270530,.00014256,0.0415,282.6531,207.7626,246.1923,0,U,32767,999,6681,0,-.316E-5,0
STAR ONE C2,2008-018B,2026-07-10T07:15:38.636064,1.00269516,.00027552,1.2965,82.2450,45.7758,204.1020,0,U,32768,999,6688,0,-.267E-5,0
AMOS-3,2008-022A,2026-07-10T03:36:28.303776,1.00486603,.00029329,0.5116,85.8901,82.6794,229.9557,0,U,32794,999,8256,0,.49E-6,0
GALAXY 18 (G-18),2008-024A,2026-07-10T08:10:33.356640,1.00270166,.00027563,0.0238,34.3606,88.0414,165.5061,0,U,32951,999,4608,0,0,0
ZHONGXING-9,2008-028A,2026-07-10T07:11:59.276832,1.00271218,.00034377,0.8242,85.0831,16.7504,26.7690,0,U,33051,999,6627,0,-.239E-5,0
SKYNET 5C,2008-030A,2026-07-10T00:14:56.614272,1.00269696,.00042178,3.8442,76.7691,43.9043,153.1775,0,U,33055,999,6618,0,-.132E-5,0
TURKSAT 3A,2008-030B,2026-07-10T05:15:01.170720,1.00273889,.00046738,0.0210,63.3924,29.9042,315.6171,0,U,33056,999,5258,0,.157E-5,0
ECHOSTAR 11,2008-035A,2026-07-10T07:23:42.715392,1.00270505,.00022867,1.0619,83.9145,11.8637,193.5885,0,U,33207,999,5144,0,-.48E-6,0
SUPERBIRD-C2,2008-038A,2026-07-10T07:24:28.079712,1.00271121,.0006147,2.4176,80.9755,37.5795,56.8022,0,U,33274,999,10596,0,-.298E-5,0
INMARSAT 4-F3,2008-039A,2026-07-10T05:15:22.051872,1.00271329,.00027661,4.3130,31.6946,81.4136,155.8699,0,U,33278,999,4677,0,-.133E-5,0
NIMIQ 4,2008-044A,2026-07-10T07:23:38.817888,1.00266135,.00021556,0.0312,59.9119,75.8376,181.4092,0,U,33373,999,6521,0,0,0
GALAXY 19 (G-19),2008-045A,2026-07-10T06:18:04.444416,1.00272460,.00023614,0.0543,250.3294,226.4408,168.9247,0,U,33376,999,6513,0,-.128E-5,0
