JCSAT-3A                
1 29272U 06033A   26191.30709832 -.00000334  00000+0  00000+0 0  9994
2 29272   0.0229 306.9783 0002490 179.2428  40.5650  1.00270363 47970
KOREASAT 5 (MUGUNGWHA 5)
1 29349U 06034A   26191.30415164 -.00000349  00000+0  00000+0 0  9998
2 29349   1.8417  82.7099 0001680  77.2073 350.8632  1.00272729 41558
DIRECTV 9S              
1 29494U 06043A   26191.22356340 -.00000105  00000+0  00000+0 0  9990
2 29494   2.4771  80.6254 0005038  31.4976 155.3089  1.00270972 51614
OPTUS D1                
1 29495U 06043B   26191.24051698 -.00000176  00000+0  00000+0 0  9999
2 29495   3.0911  79.3729 0003356  28.5331  58.8158  1.00270793 72352
BADR-4                  
1 29526U 06051A   26191.28855157  .00000164  00000+0  00000+0 0  9995
2 29526   2.0614  80.8704 0004892  30.0100 315.6654  1.00273997 51490
WILDBLUE-1              
1 29643U 06054A   26191.30807508 -.00000042  00000+0  00000+0 0  9994
2 29643   2.8594  80.1958 0001332  22.0449 185.6957  1.00273856 54029
SKYNET 5A               
1 30794U 07007B   26191.09782557 -.00000265  00000+0  00000+0 0  9991
2 30794   5.3569  73.4613 0003687  38.3471 306.6519  1.00271261 70925
ANIK F3                 
1 31102U 07009A   26191.34141275  .00000008  00000+0  00000+0 0  9995
2 31102   1.2544  83.5764 0002511  34.1795 174.7031  1.00271826 46792
ASTRA 1L                
1 31306U 07016A   26191.27685152 -.00000175  00000+0  00000+0 0  9994
2 31306   1.3784  81.3884 0005279  31.5283 250.4424  1.00270808 45214
GALAXY 17 (G-17)        
1 31307U 07016B   26191.26489145 -.00000198  00000+0  00000+0 0  9993
2 31307   3.0270  79.6093 0003592  30.7858 188.1340  1.00271194 70032
INTELSAT 11 (IS-11)     
1 32253U 07044B   26191.21529686 -.00000028  00000+0  00000+0 0  9997
2 32253   3.6222  78.3901 0003979  99.0248 212.7056  0.99050467 68670
WGS F1 (USA 195)        
1 32258U 07046A   26190.48913355 -.00000254  00000+0  00000+0 0  9993
2 32258   0.0151  75.3309 0000319 162.2257 183.4713  1.00266036 52552
SKYNET 5B               
1 32294U 07056B   26190.93028454  .00000147  00000+0  00000+0 0  9991
2 32294   5.3082  73.2334 0003742  36.2150 178.3837  1.00272198 68422
ASTRA 4A                
1 32299U 07057A   26191.31503042  .00000043  00000+0  00000+0 0  9996
2 32299   0.0365 293.6716 0002256 180.8697 291.9102  1.00269829 51871
HORIZONS-2              
1 32388U 07063B   26191.30808817 -.00000245  00000+0  00000+0 0  9994
2 32388   2.6587  80.3423 0003609  16.7979 228.2122  1.00270902 68049
THURAYA-3               
1 32404U 08001A   26191.16136274  .00000015  00000+0  00000+0 0  9995
2 32404   6.0265  35.8116 0002170  74.5748 299.4893  1.00270751 67722
THOR 5                  
1 32487U 08006A   26191.31503042  .00000001  00000+0  00000+0 0  9994
2 32487   0.0526 243.8155 0002319 233.9505 283.1311  1.00270431 67548
AMC-14                  
1 32708U 08011A   26191.02247183 -.00000155  00000+0  00000+0 0  9996
2 32708  24.0366  20.2441 0039908   8.1782 343.6292  1.00420339 68398
DIRECTV 11              
1 32729U 08013A   26191.04821574 -.00000114  00000+0  00000+0 0  9990
2 32729   0.0376 213.5585 0000260  20.0966 332.4949  1.00273035 45825
ICO G1                  
1 32763U 08016A   26191.22044678 -.00000166  00000+0  00000+0 0  9990
2 32763   5.5270  36.0560 0002253  63.3170 175.2760  1.00273065 66772
VINASAT-1               
1 32767U 08018A   26190.88015150 -.00000316  00000+0  00000+0 0  9997
2 32767   0.0415 282.6531 0001425 207.7626 246.1923  1.00270530 66812
STAR ONE C2             
1 32768U 08018B   26191.30253051 -.00000267  00000+0  00000+0 0  9995
2 32768   1.2965  82.2450 0002755  45.7758 204.1020  1.00269516 66884
AMOS-3                  
1 32794U 08022A   26191.15032759  .00000049  00000+0  00000+0 0  9999
2 32794   0.5116  85.8901 0002932  82.6794 229.9557  1.00486603 82561
GALAXY 18 (G-18)        
1 32951U 08024A   26191.34066385  .00000000  00000+0  00000+0 0  9996
2 32951   0.0238  34.3606 0002756  88.0414 165.5061  1.00270166 46087
ZHONGXING-9             
1 33051U 08028A   26191.29999163 -.00000239  00000+0  00000+0 0  9990
2 33051   0.8242  85.0831 0003437  16.7504  26.7690  1.00271218 66278
SKYNET 5C               
1 33055U 08030A   26191.01037748 -.00000132  00000+0  00000+0 0  9991
2 33055   3.8442  76.7691 0004217  43.9043 153.1775  1.00269696 66181
TURKSAT 3A              
1 33056U 08030B   26191.21876355  .00000157  00000+0  00000+0 0  9995
2 33056   0.0210  63.3924 0004673  29.9042 315.6171  1.00273889 52587
ECHOSTAR 11             
1 33207U 08035A   26191.30813328 -.00000048  00000+0  00000+0 0  9999
2 33207   1.0619  83.9145 0002286  11.8637 193.5885  1.00270505 51441
SUPERBIRD-C2            
1 33274U 08038A   26191.30865833 -.00000298  00000+0  00000+0 0  9991
2 33274   2.4176  80.9755 0006147  37.5795  56.8022  1.00271121105968
INMARSAT 4-F3           
1 33278U 08039A   26191.21900523 -.00000133  00000+0  00000+0 0  9990
2 33278   4.3130  31.6946 0002766  81.4136 155.8699  1.00271329 46771
NIMIQ 4                 
1 33373U 08044A   26191.30808817  .00000000  00000+0  00000+0 0  9997
2 33373   0.0312  59.9119 0002155  75.8376 181.4092  1.00266135 65213
GALAXY 19 (G-19)        
1 33376U 08045A   26191.26255144 -.00000128  00000+0  00000+0 0  9997
2 33376   0.0543 250.3294 0002361 226.4408 168.9247  1.00272460 65133
